NORAD_CAT_ID,OBJECT_NAME,OBJECT_TYPE,EPOCH,MEAN_MOTION,ECCENTRICITY,INCLINATION,RA_OF_ASC_NODE,ARG_OF_PERICENTER,MEAN_ANOMALY,BSTAR,MEAN_MOTION_DOT,MEAN_MOTION_DDOT,TLE_LINE0,TLE_LINE1,TLE_LINE2,SEMIMAJOR_AXIS,PERIOD,APOGEE,PERIGEE,DECAYED
53143.0,STARLINK-4102,PAYLOAD,2024-07-26 15:32:34,15.08853396,3.32e-05,53.2214,307.4154,0.8699,359.2293,7.733e-05,9.44e-06,0.0,0 STARLINK-4102,1 53143U 22083M   24208.64762048  .00000944  00000-0  77330-4 0  9995,2 53143  53.2214 307.4154 0000332   0.8699 359.2293 15.08853396112622,6917.839,95.437,539.934,539.475,0.0
53143.0,STARLINK-4102,PAYLOAD,2024-07-27 10:37:13,15.08832409,0.0001223,53.2163,303.8461,89.2308,270.8824,5.0105e-05,5.1e-06,0.0,0 STARLINK-4102,1 53143U 22083M   24209.44251810  .00000510  00000-0  50105-4 0  9994,2 53143  53.2163 303.8461 0001223  89.2308 270.8824 15.08832409112747,6917.904,95.438,540.615,538.923,0.0
53143.0,STARLINK-4102,PAYLOAD,2024-07-27 15:23:22,15.08841988,0.0001288,53.2154,302.9537,92.6404,267.4735,-4.4161e-05,-9.91e-06,0.0,0 STARLINK-4102,1 53143U 22083M   24209.64123654 -.00000991  00000-0 -44161-4 0  9990,2 53143  53.2154 302.9537 0001288  92.6404 267.4735 15.08841988112146,6917.874,95.437,540.63,538.848,0.0
53143.0,STARLINK-4102,PAYLOAD,2024-07-28 12:03:22,15.0888171,0.0001117,53.2155,299.0884,97.2638,262.8481,-0.00053441,-8.793e-05,0.0,0 STARLINK-4102,1 53143U 22083M   24210.50234835 -.00008793  00000-0 -53441-3 0  9999,2 53143  53.2155 299.0884 0001117  97.2638 262.8481 15.08881710112907,6917.753,95.435,540.391,538.845,0.0
53143.0,STARLINK-4102,PAYLOAD,2024-07-28 15:14:09,15.08845917,0.0001345,53.2162,298.4934,94.0445,266.0701,5.5377e-05,5.94e-06,0.0,0 STARLINK-4102,1 53143U 22083M   24210.63483103  .00000594  00000-0  55377-4 0  9997,2 53143  53.2162 298.4934 0001345  94.0445 266.0701 15.08845917112920,6917.862,95.437,540.658,538.797,0.0
53143.0,STARLINK-4102,PAYLOAD,2024-07-29 10:18:47,15.0883779,0.0001574,53.2177,294.9233,98.231,261.886,1.6497e-05,-2.5e-07,0.0,0 STARLINK-4102,1 53143U 22083M   24211.42971671 -.00000025  00000-0  16497-4 0  9997,2 53143  53.2177 294.9233 0001574  98.2310 261.8860 15.08837790113043,6917.887,95.438,540.841,538.663,0.0
53143.0,STARLINK-4102,PAYLOAD,2024-07-30 11:44:57,15.08846153,0.0001962,53.2185,290.163,101.9896,258.1317,1.2392e-05,-9.1e-07,0.0,0 STARLINK-4102,1 53143U 22083M   24212.48955074 -.00000091  00000-0  12392-4 0  9996,2 53143  53.2185 290.1630 0001962 101.9896 258.1317 15.08846153113200,6917.862,95.437,541.084,538.369,0.0
53143.0,STARLINK-4102,PAYLOAD,2024-07-31 11:35:44,15.08827941,0.0001382,53.2163,285.704,99.2587,260.8562,0.00010983,1.46e-05,0.0,0 STARLINK-4102,1 53143U 22083M   24213.48315855  .00001460  00000-0  10983-3 0  9997,2 53143  53.2163 285.7040 0001382  99.2587 260.8562 15.08827941113355,6917.917,95.438,540.738,538.826,0.0
53143.0,STARLINK-4102,PAYLOAD,2024-07-31 14:46:31,15.08836919,0.0001287,53.217,285.1107,92.9546,267.1594,-3.3619e-05,-8.23e-06,0.0,0 STARLINK-4102,1 53143U 22083M   24213.61563715 -.00000823  00000-0 -33619-4 0  9998,2 53143  53.2170 285.1107 0001287  92.9546 267.1594 15.08836919112742,6917.89,95.438,540.645,538.864,0.0
53143.0,STARLINK-4102,PAYLOAD,2024-08-01 11:26:31,15.08840978,0.000125,53.2164,281.2456,91.2299,268.8837,5.5727e-05,5.99e-06,0.0,0 STARLINK-4102,1 53143U 22083M   24214.47675188  .00000599  00000-0  55727-4 0  9993,2 53143  53.2164 281.2456 0001250  91.2299 268.8837 15.08840978113509,6917.877,95.437,540.607,538.878,0.0
53143.0,STARLINK-4102,PAYLOAD,2024-08-02 11:17:19,15.0882437,0.0001356,53.2164,276.7864,95.0877,265.027,2.826e-05,1.62e-06,0.0,0 STARLINK-4102,1 53143U 22083M   24215.47036574  .00000162  00000-0  28260-4 0  9992,2 53143  53.2164 276.7864 0001356  95.0877 265.0270 15.08824370113656,6917.928,95.439,540.731,538.855,0.0
53143.0,STARLINK-4102,PAYLOAD,2024-08-02 14:28:05,15.08827687,0.0001342,53.216,276.1913,93.063,267.0516,-1.0159e-05,-4.49e-06,0.0,0 STARLINK-4102,1 53143U 22083M   24215.60284627 -.00000449  00000-0 -10159-4 0  9999,2 53143  53.2160 276.1913 0001342  93.0630 267.0516 15.08827687113043,6917.918,95.438,540.711,538.855,0.0
53143.0,STARLINK-4102,PAYLOAD,2024-08-03 03:11:10,15.08833367,0.0001297,53.2164,273.8123,94.0939,266.0201,1.5028e-05,-4.9e-07,0.0,0 STARLINK-4102,1 53143U 22083M   24216.13276414 -.00000049  00000-0  15028-4 0  9998,2 53143  53.2164 273.8123 0001297  94.0939 266.0201 15.08833367113756,6917.901,95.438,540.663,538.868,0.0
53143.0,STARLINK-4102,PAYLOAD,2024-08-03 11:08:06,15.08836675,0.0001391,53.2159,272.3261,103.1286,256.9862,8.0801e-05,9.98e-06,0.0,0 STARLINK-4102,1 53143U 22083M   24216.46396043  .00000998  00000-0  80801-4 0  9998,2 53143  53.2159 272.3261 0001391 103.1286 256.9862 15.08836675113171,6917.891,95.438,540.718,538.793,0.0
53143.0,STARLINK-4102,PAYLOAD,2024-08-03 20:40:24,15.08844709,0.0001381,53.2165,270.5413,89.9467,270.1683,9.7126e-05,1.258e-05,0.0,0 STARLINK-4102,1 53143U 22083M   24216.86139479  .00001258  00000-0  97126-4 0  9998,2 53143  53.2165 270.5413 0001381  89.9467 270.1683 15.08844709113860,6917.866,95.437,540.686,538.776,0.0
53143.0,STARLINK-4102,PAYLOAD,2024-08-04 12:34:16,15.08838986,0.0001582,53.2165,267.5682,86.4698,273.6475,0.00011717,1.577e-05,0.0,0 STARLINK-4102,1 53143U 22083M   24217.52379981  .00001577  00000-0  11717-3 0  9991,2 53143  53.2165 267.5682 0001582  86.4698 273.6475 15.08838986113963,6917.883,95.438,540.843,538.654,0.0
53143.0,STARLINK-4102,PAYLOAD,2024-08-04 20:31:10,15.08878053,0.00018,53.2179,266.0779,63.8287,296.2891,-0.00020898,-3.616e-05,0.0,0 STARLINK-4102,1 53143U 22083M   24217.85498343 -.00003616  00000-0 -20898-3 0  9999,2 53143  53.2179 266.0779 0001800  63.8287 296.2891 15.08878053114014,6917.764,95.435,540.874,538.384,0.0
53143.0,STARLINK-4102,PAYLOAD,2024-08-05 10:49:40,15.08835319,0.000143,53.2163,263.4033,80.833,279.2824,-5.9959e-05,-1.242e-05,0.0,0 STARLINK-4102,1 53143U 22083M   24218.45116789 -.00001242  00000-0 -59959-4 0  9991,2 53143  53.2163 263.4033 0001430  80.8330 279.2824 15.08835319114103,6917.895,95.438,540.749,538.77,0.0
53143.0,STARLINK-4102,PAYLOAD,2024-08-05 20:21:59,15.0884325,0.0001582,53.2173,261.6221,80.5978,279.5193,-1.8142e-05,-5.77e-06,0.0,0 STARLINK-4102,1 53143U 22083M   24218.84860210 -.00000577  00000-0 -18142-4 0  9998,2 53143  53.2173 261.6221 0001582  80.5978 279.5193 15.08843250114167,6917.87,95.437,540.83,538.641,0.0
53143.0,STARLINK-4102,PAYLOAD,2024-08-06 12:15:51,15.08836418,0.00015,53.217,258.6423,94.6612,265.4551,-5.3768e-05,-1.144e-05,0.0,0 STARLINK-4102,1 53143U 22083M   24219.51100847 -.00001144  00000-0 -53768-4 0  9990,2 53143  53.2170 258.6423 0001500  94.6612 265.4551 15.08836418114266,6917.891,95.438,540.794,538.719,0.0
53143.0,STARLINK-4102,PAYLOAD,2024-08-07 12:06:37,15.08845269,0.000144,53.2175,254.1838,96.0652,264.0504,0.00011944,1.614e-05,0.0,0 STARLINK-4102,1 53143U 22083M   24220.50459611  .00001614  00000-0  11944-3 0  9996,2 53143  53.2175 254.1838 0001440  96.0652 264.0504 15.08845269114419,6917.864,95.437,540.725,538.733,0.0
53143.0,STARLINK-4102,PAYLOAD,2024-08-08 08:46:38,15.0884016,0.0001318,53.2163,250.3171,93.1824,266.9319,6.0622e-05,6.77e-06,0.0,0 STARLINK-4102,1 53143U 22083M   24221.36572074  .00000677  00000-0  60622-4 0  9996,2 53143  53.2163 250.3171 0001318  93.1824 266.9319 15.08840160113911,6917.88,95.438,540.657,538.833,0.0
53143.0,STARLINK-4102,PAYLOAD,2024-08-09 10:12:49,15.08836705,0.0001353,53.2162,245.5628,102.3019,257.8125,-0.00011228,-2.074e-05,0.0,0 STARLINK-4102,1 53143U 22083M   24222.42556933 -.00002074  00000-0 -11228-3 0  9992,2 53143  53.2162 245.5628 0001353 102.3019 257.8125 15.08836705114703,6917.89,95.438,540.691,538.819,0.0
53143.0,STARLINK-4102,PAYLOAD,2024-08-09 18:09:44,15.08841002,0.0001298,53.2158,244.0756,103.2625,256.8512,-4.3518e-05,-9.8e-06,0.0,0 STARLINK-4102,1 53143U 22083M   24222.75676442 -.00000980  00000-0 -43518-4 0  9998,2 53143  53.2158 244.0756 0001298 103.2625 256.8512 15.08841002114126,6917.877,95.437,540.64,538.844,0.0
53143.0,STARLINK-4102,PAYLOAD,2024-08-10 00:31:16,15.08855614,0.0001386,53.2154,242.8856,99.4963,260.6186,-0.00021421,-3.697e-05,0.0,0 STARLINK-4102,1 53143U 22083M   24223.02171886 -.00003697  00000-0 -21421-3 0  9997,2 53143  53.2154 242.8856 0001386  99.4963 260.6186 15.08855614114795,6917.833,95.437,540.656,538.739,0.0
53143.0,STARLINK-4102,PAYLOAD,2024-08-10 08:28:12,15.0883954,0.0001379,53.2155,241.3989,103.4892,256.6254,6.2946e-05,7.14e-06,0.0,0 STARLINK-4102,1 53143U 22083M   24223.35292213  .00000714  00000-0  62946-4 0  9994,2 53143  53.2155 241.3989 0001379 103.4892 256.6254 15.08839540114843,6917.882,95.438,540.701,538.793,0.0
53143.0,STARLINK-4102,PAYLOAD,2024-08-11 09:54:22,15.08838927,0.000134,53.2153,236.6408,101.8322,258.2821,0.00012516,1.705e-05,0.0,0 STARLINK-4102,1 53143U 22083M   24224.41276199  .00001705  00000-0  12516-3 0  9995,2 53143  53.2153 236.6408 0001340 101.8322 258.2821 15.08838927115007,6917.884,95.438,540.676,538.822,0.0
53143.0,STARLINK-4102,PAYLOAD,2024-08-11 17:51:17,15.08847245,0.0001439,53.2159,235.1512,78.3663,281.7491,0.00015515,2.183e-05,0.0,0 STARLINK-4102,1 53143U 22083M   24224.74395628  .00002183  00000-0  15515-3 0  9993,2 53143  53.2159 235.1512 0001439  78.3663 281.7491 15.08847245114420,6917.858,95.437,540.719,538.728,0.0
53143.0,STARLINK-4102,PAYLOAD,2024-08-12 08:09:46,15.08845795,0.0001517,53.2155,232.4752,84.1337,275.9828,4.4807e-05,4.25e-06,0.0,0 STARLINK-4102,1 53143U 22083M   24225.34012161  .00000425  00000-0  44807-4 0  9992,2 53143  53.2155 232.4752 0001517  84.1337 275.9828 15.08845795114519,6917.863,95.437,540.777,538.678,0.0
53143.0,STARLINK-4102,PAYLOAD,2024-08-12 17:42:04,15.08855437,0.0001457,53.2154,230.6912,90.9022,269.2137,0.00012961,1.776e-05,0.0,0 STARLINK-4102,1 53143U 22083M   24225.73755061  .00001776  00000-0  12961-3 0  9993,2 53143  53.2154 230.6912 0001457  90.9022 269.2137 15.08855437115205,6917.833,95.437,540.706,538.69,0.0
